{
  "type": "FeatureCollection",
  "features": [
    {
      "type": "Feature",
      "properties": {
        "norad_id": 66931,
        "name": "STARLINK-36130",
        "group": "last-30-days",
        "lat": 4.558467301201003,
        "lon": -149.05983939908072,
        "alt_km": 302.73823401276786,
        "timestamp": "2025-12-15T22:44:27.662837+00:00",
        "meta_object_name": "STARLINK-36130",
        "meta_object_id": "2025-286G",
        "meta_epoch": "2025-12-15T06:00:04.999968",
        "meta_mean_motion": 15.918444,
        "meta_eccentricity": 9.819e-05,
        "meta_inclination": 53.1571,
        "meta_ra_of_asc_node": 37.9161,
        "meta_arg_of_pericenter": 80.3079,
        "meta_mean_anomaly": 56.8981,
        "meta_ephemeris_type": 0,
        "meta_classification_type": "U",
        "meta_norad_cat_id": 66931,
        "meta_element_set_no": 999,
        "meta_rev_at_epoch": 239,
        "meta_bstar": -0.0042083197,
        "meta_mean_motion_dot": -0.01414345,
        "meta_mean_motion_ddot": 0.00057384245,
        "tle_line1": "1 66931U 25286G   25349.25005787 -.01414345  57384-3 -42083-2 0  9998",
        "tle_line2": "2 66931  53.1571  37.9161 0000981  80.3079  56.8981 15.91844400  2398"
      },
      "geometry": {
        "type": "Point",
        "coordinates": [
          -149.05983939908072,
          4.558467301201003
        ]
      }
    },
    {
      "type": "Feature",
      "properties": {
        "norad_id": 66932,
        "name": "STARLINK-36177",
        "group": "last-30-days",
        "lat": 2.9546337863592607,
        "lon": -147.85475454005618,
        "alt_km": 302.8407873745509,
        "timestamp": "2025-12-15T22:44:27.662848+00:00",
        "meta_object_name": "STARLINK-36177",
        "meta_object_id": "2025-286H",
        "meta_epoch": "2025-12-15T06:00:04.999968",
        "meta_mean_motion": 15.91901631,
        "meta_eccentricity": 0.00010415,
        "meta_inclination": 53.1571,
        "meta_ra_of_asc_node": 37.9121,
        "meta_arg_of_pericenter": 70.5086,
        "meta_mean_anomaly": 68.5794,
        "meta_ephemeris_type": 0,
        "meta_classification_type": "U",
        "meta_norad_cat_id": 66932,
        "meta_element_set_no": 999,
        "meta_rev_at_epoch": 239,
        "meta_bstar": -0.0042318767,
        "meta_mean_motion_dot": -0.01426346,
        "meta_mean_motion_ddot": 0.00058308745,
        "tle_line1": "1 66932U 25286H   25349.25005787 -.01426346  58309-3 -42319-2 0  9993",
        "tle_line2": "2 66932  53.1571  37.9121 0001041  70.5086  68.5794 15.91901631  2394"
      },
      "geometry": {
        "type": "Point",
        "coordinates": [
          -147.85475454005618,
          2.9546337863592607
        ]
      }
    },
    {
      "type": "Feature",
      "properties": {
        "norad_id": 66933,
        "name": "STARLINK-36157",
        "group": "last-30-days",
        "lat": 1.3747894658885473,
        "lon": -146.67195666488982,
        "alt_km": 302.97372651629576,
        "timestamp": "2025-12-15T22:44:27.662858+00:00",
        "meta_object_name": "STARLINK-36157",
        "meta_object_id": "2025-286J",
        "meta_epoch": "2025-12-15T06:00:04.999968",
        "meta_mean_motion": 15.91957169,
        "meta_eccentricity": 8.503e-05,
        "meta_inclination": 53.1571,
        "meta_ra_of_asc_node": 37.9083,
        "meta_arg_of_pericenter": 79.5048,
        "meta_mean_anomaly": 61.4315,
        "meta_ephemeris_type": 0,
        "meta_classification_type": "U",
        "meta_norad_cat_id": 66933,
        "meta_element_set_no": 999,
        "meta_rev_at_epoch": 239,
        "meta_bstar": -0.0042390218,
        "meta_mean_motion_dot": -0.01432768,
        "meta_mean_motion_ddot": 0.00058820664,
        "tle_line1": "1 66933U 25286J   25349.25005787 -.01432768  58821-3 -42390-2 0  9997",
        "tle_line2": "2 66933  53.1571  37.9083 0000850  79.5048  61.4315 15.91957169  2394"
      },
      "geometry": {
        "type": "Point",
        "coordinates": [
          -146.67195666488982,
          1.3747894658885473
        ]
      }
    },
    {
      "type": "Feature",
      "properties": {
        "norad_id": 66934,
        "name": "STARLINK-36153",
        "group": "last-30-days",
        "lat": -0.22196683454893912,
        "lon": -145.4789945185774,
        "alt_km": 303.0107559463813,
        "timestamp": "2025-12-15T22:44:27.662890+00:00",
        "meta_object_name": "STARLINK-36153",
        "meta_object_id": "2025-286K",
        "meta_epoch": "2025-12-15T06:00:04.999968",
        "meta_mean_motion": 15.92016777,
        "meta_eccentricity": 8.819e-05,
        "meta_inclination": 53.157,
        "meta_ra_of_asc_node": 37.904,
        "meta_arg_of_pericenter": 86.2385,
        "meta_mean_anomaly": 56.5643,
        "meta_ephemeris_type": 0,
        "meta_classification_type": "U",
        "meta_norad_cat_id": 66934,
        "meta_element_set_no": 999,
        "meta_rev_at_epoch": 239,
        "meta_bstar": -0.0042642553,
        "meta_mean_motion_dot": -0.01445605,
        "meta_mean_motion_ddot": 0.00059821385,
        "tle_line1": "1 66934U 25286K   25349.25005787 -.01445605  59821-3 -42643-2 0  9994",
        "tle_line2": "2 66934  53.1570  37.9040 0000881  86.2385  56.5643 15.92016777  2391"
      },
      "geometry": {
        "type": "Point",
        "coordinates": [
          -145.4789945185774,
          -0.22196683454893912
        ]
      }
    },
    {
      "type": "Feature",
      "properties": {
        "norad_id": 66935,
        "name": "STARLINK-36127",
        "group": "last-30-days",
        "lat": -2.028018975084,
        "lon": -144.12835150501712,
        "alt_km": 303.1540967806104,
        "timestamp": "2025-12-15T22:44:27.662902+00:00",
        "meta_object_name": "STARLINK-36127",
        "meta_object_id": "2025-286L",
        "meta_epoch": "2025-12-15T06:00:04.999968",
        "meta_mean_motion": 15.92074613,
        "meta_eccentricity": 8.467e-05,
        "meta_inclination": 53.1568,
        "meta_ra_of_asc_node": 37.8999,
        "meta_arg_of_pericenter": 83.5395,
        "meta_mean_anomaly": 61.3846,
        "meta_ephemeris_type": 0,
        "meta_classification_type": "U",
        "meta_norad_cat_id": 66935,
        "meta_element_set_no": 999,
        "meta_rev_at_epoch": 239,
        "meta_bstar": -0.0042673404,
        "meta_mean_motion_dot": -0.01450929,
        "meta_mean_motion_ddot": 0.00060258405,
        "tle_line1": "1 66935U 25286L   25349.25005787 -.01450929  60258-3 -42673-2 0  9999",
        "tle_line2": "2 66935  53.1568  37.8999 0000846  83.5395  61.3846 15.92074613  2395"
      },
      "geometry": {
        "type": "Point",
        "coordinates": [
          -144.12835150501712,
          -2.028018975084
        ]
      }
    },
    {
      "type": "Feature",
      "properties": {
        "norad_id": 66936,
        "name": "STARLINK-36160",
        "group": "last-30-days",
        "lat": -3.5173920419629408,
        "lon": -143.01179937857714,
        "alt_km": 303.2589246171174,
        "timestamp": "2025-12-15T22:44:27.662912+00:00",
        "meta_object_name": "STARLINK-36160",
        "meta_object_id": "2025-286M",
        "meta_epoch": "2025-12-15T06:00:04.999968",
        "meta_mean_motion": 15.92127626,
        "meta_eccentricity": 8.672e-05,
        "meta_inclination": 53.1568,
        "meta_ra_of_asc_node": 37.8965,
        "meta_arg_of_pericenter": 80.9053,
        "meta_mean_anomaly": 65.7553,
        "meta_ephemeris_type": 0,
        "meta_classification_type": "U",
        "meta_norad_cat_id": 66936,
        "meta_element_set_no": 999,
        "meta_rev_at_epoch": 239,
        "meta_bstar": -0.0042683186,
        "meta_mean_motion_dot": -0.01455212,
        "meta_mean_motion_ddot": 0.00060615034,
        "tle_line1": "1 66936U 25286M   25349.25005787 -.01455212  60615-3 -42683-2 0  9998",
        "tle_line2": "2 66936  53.1568  37.8965 0000867  80.9053  65.7553 15.92127626  2390"
      },
      "geometry": {
        "type": "Point",
        "coordinates": [
          -143.01179937857714,
          -3.5173920419629408
        ]
      }
    },
    {
      "type": "Feature",
      "properties": {
        "norad_id": 66937,
        "name": "STARLINK-36165",
        "group": "last-30-days",
        "lat": -5.03900028153763,
        "lon": -141.86693493129945,
        "alt_km": 303.4440884180585,
        "timestamp": "2025-12-15T22:44:27.662922+00:00",
        "meta_object_name": "STARLINK-36165",
        "meta_object_id": "2025-286N",
        "meta_epoch": "2025-12-15T06:00:04.999968",
        "meta_mean_motion": 15.92180489,
        "meta_eccentricity": 9.788e-05,
        "meta_inclination": 53.1568,
        "meta_ra_of_asc_node": 37.8924,
        "meta_arg_of_pericenter": 72.7615,
        "meta_mean_anomaly": 75.6766,
        "meta_ephemeris_type": 0,
        "meta_classification_type": "U",
        "meta_norad_cat_id": 66937,
        "meta_element_set_no": 999,
        "meta_rev_at_epoch": 239,
        "meta_bstar": -0.0042673902,
        "meta_mean_motion_dot": -0.01458867,
        "meta_mean_motion_ddot": 0.00060924809,
        "tle_line1": "1 66937U 25286N   25349.25005787 -.01458867  60925-3 -42674-2 0  9992",
        "tle_line2": "2 66937  53.1568  37.8924 0000978  72.7615  75.6766 15.92180489  2394"
      },
      "geometry": {
        "type": "Point",
        "coordinates": [
          -141.86693493129945,
          -5.03900028153763
        ]
      }
    }
  ]
}